{"type": "FeatureCollection", "features": [ {"type": "Feature", "properties": {"norad_id": 34833, "name": "IRIDIUM 33 DEB", "group": "iridium-33-debris", "lat": -34.5403796504562, "lon": 50.23052351061281, "alt_km": 737.0200641608926, "timestamp": "2025-12-08T17:43:05.321878+00:00", "meta": {"OBJECT_NAME": "IRIDIUM 33 DEB", "OBJECT_ID": "1997-051MH", "EPOCH": "2025-12-08T04:53:52.275264", "MEAN_MOTION": 14.52334533, "ECCENTRICITY": 0.00217756, "INCLINATION": 86.3933, "RA_OF_ASC_NODE": 52.9489, "ARG_OF_PERICENTER": 112.4675, "MEAN_ANOMALY": 302.0491, "EPHEMERIS_TYPE": 0, "CLASSIFICATION_TYPE": "U", "NORAD_CAT_ID": 34833, "ELEMENT_SET_NO": 999, "REV_AT_EPOCH": 87649, "BSTAR": 0.0010790746, "MEAN_MOTION_DOT": 4.422e-05, "MEAN_MOTION_DDOT": 0}, "tle": {"line1": "1 34833U 97051MH  25342.20407726  .00004422  00000+0  10791-2 0  9998", "line2": "2 34833  86.3933  52.9489 0021775 112.4675 302.0491 14.52334533876496"}}, "geometry": {"type": "Point", "coordinates": [50.23052351061281, -34.5403796504562]}}, {"type": "Feature", "properties": {"norad_id": 34870, "name": "IRIDIUM 33 DEB", "group": "iridium-33-debris", "lat": -47.4324944852702, "lon": -48.113481195377915, "alt_km": 652.4105857767563, "timestamp": "2025-12-08T17:43:05.321899+00:00", "meta": {"OBJECT_NAME": "IRIDIUM 33 DEB", "OBJECT_ID": "1997-051MQ", "EPOCH": "2025-12-07T16:41:29.147136", "MEAN_MOTION": 14.76272854, "ECCENTRICITY": 0.00154972, "INCLINATION": 86.3098, "RA_OF_ASC_NODE": 316.3932, "ARG_OF_PERICENTER": 201.8058, "MEAN_ANOMALY": 332.1989, "EPHEMERIS_TYPE": 0, "CLASSIFICATION_TYPE": "U", "NORAD_CAT_ID": 34870, "ELEMENT_SET_NO": 999, "REV_AT_EPOCH": 88836, "BSTAR": 0.0021061979, "MEAN_MOTION_DOT": 0.00014658, "MEAN_MOTION_DDOT": 0}, "tle": {"line1": "1 34870U 97051MQ  25341.69547624  .00014658  00000+0  21062-2 0  9998", "line2": "2 34870  86.3098 316.3932 0015497 201.8058 332.1989 14.76272854888369"}}, "geometry": {"type": "Point", "coordinates": [-48.113481195377915, -47.4324944852702]}}, {"type": "Feature", "properties": {"norad_id": 34896, "name": "IRIDIUM 33 DEB", "group": "iridium-33-debris", "lat": -60.54341536906749, "lon": -38.04696190694619, "alt_km": 674.5597409240045, "timestamp": "2025-12-08T17:43:05.321914+00:00", "meta": {"OBJECT_NAME": "IRIDIUM 33 DEB", "OBJECT_ID": "1997-051MY", "EPOCH": "2025-12-08T06:47:45.155328", "MEAN_MOTION": 14.66206819, "ECCENTRICITY": 0.00239488, "INCLINATION": 86.3293, "RA_OF_ASC_NODE": 328.6838, "ARG_OF_PERICENTER": 231.0822, "MEAN_ANOMALY": 187.3834, "EPHEMERIS_TYPE": 0, "CLASSIFICATION_TYPE": "U", "NORAD_CAT_ID": 34896, "ELEMENT_SET_NO": 999, "REV_AT_EPOCH": 87554, "BSTAR": 0.001338628, "MEAN_MOTION_DOT": 7.421e-05, "MEAN_MOTION_DDOT": 0}, "tle": {"line1": "1 34896U 97051MY  25342.28316152  .00007421  00000+0  13386-2 0  9992", "line2": "2 34896  86.3293 328.6838 0023948 231.0822 187.3834 14.66206819875541"}}, "geometry": {"type": "Point", "coordinates": [-38.04696190694619, -60.54341536906749]}}, {"type": "Feature", "properties": {"norad_id": 34926, "name": "IRIDIUM 33 DEB", "group": "iridium-33-debris", "lat": -17.133504825508155, "lon": -168.67694565872677, "alt_km": 734.8260562621917, "timestamp": "2025-12-08T17:43:05.321926+00:00", "meta": {"OBJECT_NAME": "IRIDIUM 33 DEB", "OBJECT_ID": "1997-051NF", "EPOCH": "2025-12-08T02:11:30.683040", "MEAN_MOTION": 14.54084217, "ECCENTRICITY": 0.00760537, "INCLINATION": 86.1317, "RA_OF_ASC_NODE": 10.4276, "ARG_OF_PERICENTER": 308.6833, "MEAN_ANOMALY": 104.8463, "EPHEMERIS_TYPE": 0, "CLASSIFICATION_TYPE": "U", "NORAD_CAT_ID": 34926, "ELEMENT_SET_NO": 999, "REV_AT_EPOCH": 86389, "BSTAR": 0.0064312828, "MEAN_MOTION_DOT": 0.00028322, "MEAN_MOTION_DDOT": 0}, "tle": {"line1": "1 34926U 97051NF  25342.09132735  .00028322  00000+0  64313-2 0  9997", "line2": "2 34926  86.1317  10.4276 0076053 308.6833 104.8463 14.54084217863890"}}, "geometry": {"type": "Point", "coordinates": [-168.67694565872677, -17.133504825508155]}}, {"type": "Feature", "properties": {"norad_id": 34985, "name": "IRIDIUM 33 DEB", "group": "iridium-33-debris", "lat": 40.63076589378659, "lon": -124.53636611012413, "alt_km": 749.9280887241048, "timestamp": "2025-12-08T17:43:05.321936+00:00", "meta": {"OBJECT_NAME": "IRIDIUM 33 DEB", "OBJECT_ID": "1997-051NR", "EPOCH": "2025-12-08T05:40:04.658592", "MEAN_MOTION": 14.41979756, "ECCENTRICITY": 0.00202828, "INCLINATION": 86.3695, "RA_OF_ASC_NODE": 58.8006, "ARG_OF_PERICENTER": 235.2895, "MEAN_ANOMALY": 179.3648, "EPHEMERIS_TYPE": 0, "CLASSIFICATION_TYPE": "U", "NORAD_CAT_ID": 34985, "ELEMENT_SET_NO": 999, "REV_AT_EPOCH": 87110, "BSTAR": 0.0010950657, "MEAN_MOTION_DOT": 3.617e-05, "MEAN_MOTION_DDOT": 0}, "tle": {"line1": "1 34985U 97051NR  25342.23616503  .00003617  00000+0  10951-2 0  9997", "line2": "2 34985  86.3695  58.8006 0020282 235.2895 179.3648 14.41979756871101"}}, "geometry": {"type": "Point", "coordinates": [-124.53636611012413, 40.63076589378659]}}, {"type": "Feature", "properties": {"norad_id": 35051, "name": "IRIDIUM 33 DEB", "group": "iridium-33-debris", "lat": -8.398893071397582, "lon": 10.062484842470948, "alt_km": 740.0356753097394, "timestamp": "2025-12-08T17:43:05.321947+00:00", "meta": {"OBJECT_NAME": "IRIDIUM 33 DEB", "OBJECT_ID": "1997-051NX", "EPOCH": "2025-12-05T08:27:53.565120", "MEAN_MOTION": 14.47546386, "ECCENTRICITY": 0.00106363, "INCLINATION": 86.3242, "RA_OF_ASC_NODE": 12.0813, "ARG_OF_PERICENTER": 111.2483, "MEAN_ANOMALY": 248.9857, "EPHEMERIS_TYPE": 0, "CLASSIFICATION_TYPE": "U", "NORAD_CAT_ID": 35051, "ELEMENT_SET_NO": 999, "REV_AT_EPOCH": 86889, "BSTAR": 0.0012192117, "MEAN_MOTION_DOT": 4.506e-05, "MEAN_MOTION_DDOT": 0}, "tle": {"line1": "1 35051U 97051NX  25339.35270330  .00004506  00000+0  12192-2 0  9992", "line2": "2 35051  86.3242  12.0813 0010636 111.2483 248.9857 14.47546386868892"}}, "geometry": {"type": "Point", "coordinates": [10.062484842470948, -8.398893071397582]}}, {"type": "Feature", "properties": {"norad_id": 35052, "name": "IRIDIUM 33 DEB", "group": "iridium-33-debris", "lat": -85.9234017296209, "lon": -41.99384297777779, "alt_km": 780.7117086394355, "timestamp": "2025-12-08T17:43:05.321958+00:00", "meta": {"OBJECT_NAME": "IRIDIUM 33 DEB", "OBJECT_ID": "1997-051NY", "EPOCH": "2025-12-07T20:25:31.207296", "MEAN_MOTION": 14.38483382, "ECCENTRICITY": 0.00136742, "INCLINATION": 86.3314, "RA_OF_ASC_NODE": 22.5721, "ARG_OF_PERICENTER": 98.6502, "MEAN_ANOMALY": 261.6246, "EPHEMERIS_TYPE": 0, "CLASSIFICATION_TYPE": "U", "NORAD_CAT_ID": 35052, "ELEMENT_SET_NO": 999, "REV_AT_EPOCH": 87205, "BSTAR": 0.00029940676, "MEAN_MOTION_DOT": 9.35e-06, "MEAN_MOTION_DDOT": 0}, "tle": {"line1": "1 35052U 97051NY  25341.85105564  .00000935  00000+0  29941-3 0  9990", "line2": "2 35052  86.3314  22.5721 0013674  98.6502 261.6246 14.38483382872055"}}, "geometry": {"type": "Point", "coordinates": [-41.99384297777779, -85.9234017296209]}}, {"type": "Feature", "properties": {"norad_id": 35080, "name": "IRIDIUM 33 DEB", "group": "iridium-33-debris", "lat": 52.32802070776266, "lon": -130.64235808457195, "alt_km": 590.839019211282, "timestamp": "2025-12-08T17:43:05.321969+00:00", "meta": {"OBJECT_NAME": "IRIDIUM 33 DEB", "OBJECT_ID": "1997-051PF", "EPOCH": "2025-12-08T04:12:23.440320", "MEAN_MOTION": 14.85168488, "ECCENTRICITY": 0.00618555, "INCLINATION": 86.2067, "RA_OF_ASC_NODE": 54.5559, "ARG_OF_PERICENTER": 196.3675, "MEAN_ANOMALY": 163.5554, "EPHEMERIS_TYPE": 0, "CLASSIFICATION_TYPE": "U", "NORAD_CAT_ID": 35080, "ELEMENT_SET_NO": 999, "REV_AT_EPOCH": 69620, "BSTAR": 0.0097703177, "MEAN_MOTION_DOT": 0.00087525, "MEAN_MOTION_DDOT": 0}, "tle": {"line1": "1 35080U 97051PF  25342.17527130  .00087525  00000+0  97703-2 0  9994", "line2": "2 35080  86.2067  54.5559 0061855 196.3675 163.5554 14.85168488696207"}}, "geometry": {"type": "Point", "coordinates": [-130.64235808457195, 52.32802070776266]}}, {"type": "Feature", "properties": {"norad_id": 35297, "name": "IRIDIUM 33 DEB", "group": "iridium-33-debris", "lat": 81.94610079083267, "lon": 90.99144874517634, "alt_km": 729.9431049238947, "timestamp": "2025-12-08T17:43:05.321979+00:00", "meta": {"OBJECT_NAME": "IRIDIUM 33 DEB", "OBJECT_ID": "1997-051PM", "EPOCH": "2025-12-06T00:31:29.302752", "MEAN_MOTION": 14.45108459, "ECCENTRICITY": 0.00170329, "INCLINATION": 86.3867, "RA_OF_ASC_NODE": 65.6268, "ARG_OF_PERICENTER": 161.2449, "MEAN_ANOMALY": 198.9384, "EPHEMERIS_TYPE": 0, "CLASSIFICATION_TYPE": "U", "NORAD_CAT_ID": 35297, "ELEMENT_SET_NO": 999, "REV_AT_EPOCH": 70329, "BSTAR": 0.0012426888, "MEAN_MOTION_DOT": 4.371e-05, "MEAN_MOTION_DDOT": 0}, "tle": {"line1": "1 35297U 97051PM  25340.02186693  .00004371  00000+0  12427-2 0  9999", "line2": "2 35297  86.3867  65.6268 0017032 161.2449 198.9384 14.45108459703293"}}, "geometry": {"type": "Point", "coordinates": [90.99144874517634, 81.94610079083267]}}, {"type": "Feature", "properties": {"norad_id": 35299, "name": "IRIDIUM 33 DEB", "group": "iridium-33-debris", "lat": 76.67164583001843, "lon": 50.831008709293286, "alt_km": 715.3672779462304, "timestamp": "2025-12-08T17:43:05.321990+00:00", "meta": {"OBJECT_NAME": "IRIDIUM 33 DEB", "OBJECT_ID": "1997-051PP", "EPOCH": "2025-12-08T04:17:25.412640", "MEAN_MOTION": 14.40826003, "ECCENTRICITY": 0.00588615, "INCLINATION": 86.2883, "RA_OF_ASC_NODE": 35.172, "ARG_OF_PERICENTER": 116.9161, "MEAN_ANOMALY": 300.4921, "EPHEMERIS_TYPE": 0, "CLASSIFICATION_TYPE": "U", "NORAD_CAT_ID": 35299, "ELEMENT_SET_NO": 999, "REV_AT_EPOCH": 86265, "BSTAR": 0.0010513768, "MEAN_MOTION_DOT": 3.456e-05, "MEAN_MOTION_DDOT": 0}, "tle": {"line1": "1 35299U 97051PP  25342.17876635  .00003456  00000+0  10514-2 0  9999", "line2": "2 35299  86.2883  35.1720 0058861 116.9161 300.4921 14.40826003862650"}}, "geometry": {"type": "Point", "coordinates": [50.831008709293286, 76.67164583001843]}}]}